{
    "week": 293,
    "satellites": [
        {
            "Name": "GSAT0101 (GALILEO-PFM)",
            "Line1": "1 37846U 11060A   24321.06215764 -.00000086  00000+0  00000+0 0  9992",
            "Line2": "2 37846  57.1209 357.4268 0001956 303.3951  56.6470  1.70475634 81266",
            "SatelliteNumber": "37846",
            "Classification": "U",
            "LaunchYear": "11",
            "LaunchNumber": "060",
            "PieceOfLaunch": "A",
            "EpochYear": "24",
            "EpochDay": 321.06215764,
            "FirstDerivativeMeanMotion": -8.6e-07,
            "SecondDerivativeMeanMotion": "00000+0",
            "BSTAR": "00000+0",
            "SetNumber": "999",
            "Inclination": 57.1209,
            "RAAN": 357.4268,
            "Eccentricity": 0.0001956,
            "ArgumentOfPerigee": 303.3951,
            "MeanAnomaly": 56.647,
            "MeanMotion": 1.70475634,
            "RevolutionNumber": "8126"
        },
        {
            "Name": "GSAT0102 (GALILEO-FM2)",
            "Line1": "1 37847U 11060B   24320.39576397 -.00000084  00000+0  00000+0 0  9998",
            "Line2": "2 37847  57.1217 357.4451 0003255 300.6129  55.8638  1.70475200 81256",
            "SatelliteNumber": "37847",
            "Classification": "U",
            "LaunchYear": "11",
            "LaunchNumber": "060",
            "PieceOfLaunch": "B",
            "EpochYear": "24",
            "EpochDay": 320.39576397,
            "FirstDerivativeMeanMotion": -8.4e-07,
            "SecondDerivativeMeanMotion": "00000+0",
            "BSTAR": "00000+0",
            "SetNumber": "999",
            "Inclination": 57.1217,
            "RAAN": 357.4451,
            "Eccentricity": 0.0003255,
            "ArgumentOfPerigee": 300.6129,
            "MeanAnomaly": 55.8638,
            "MeanMotion": 1.704752,
            "RevolutionNumber": "8125"
        },
        {
            "Name": "GSAT0103 (GALILEO-FM3)",
            "Line1": "1 38857U 12055A   24321.10151763  .00000043  00000+0  00000+0 0  9995",
            "Line2": "2 38857  55.4781 117.4288 0002195 248.2730 111.6845  1.70473442 75298",
            "SatelliteNumber": "38857",
            "Classification": "U",
            "LaunchYear": "12",
            "LaunchNumber": "055",
            "PieceOfLaunch": "A",
            "EpochYear": "24",
            "EpochDay": 321.10151763,
            "FirstDerivativeMeanMotion": 4.3e-07,
            "SecondDerivativeMeanMotion": "00000+0",
            "BSTAR": "00000+0",
            "SetNumber": "999",
            "Inclination": 55.4781,
            "RAAN": 117.4288,
            "Eccentricity": 0.0002195,
            "ArgumentOfPerigee": 248.273,
            "MeanAnomaly": 111.6845,
            "MeanMotion": 1.70473442,
            "RevolutionNumber": "7529"
        },
        {
            "Name": "GSAT0201 (GALILEO 5)",
            "Line1": "1 40128U 14050A   24317.84894513 -.00000064  00000+0  00000+0 0  9993",
            "Line2": "2 40128  49.5062 297.0773 1615021 157.0418 211.0891  1.85519421 67539",
            "SatelliteNumber": "40128",
            "Classification": "U",
            "LaunchYear": "14",
            "LaunchNumber": "050",
            "PieceOfLaunch": "A",
            "EpochYear": "24",
            "EpochDay": 317.84894513,
            "FirstDerivativeMeanMotion": -6.4e-07,
            "SecondDerivativeMeanMotion": "00000+0",
            "BSTAR": "00000+0",
            "SetNumber": "999",
            "Inclination": 49.5062,
            "RAAN": 297.0773,
            "Eccentricity": 0.1615021,
            "ArgumentOfPerigee": 157.0418,
            "MeanAnomaly": 211.0891,
            "MeanMotion": 1.85519421,
            "RevolutionNumber": "6753"
        },
        {
            "Name": "GSAT0202 (GALILEO 6)",
            "Line1": "1 40129U 14050B   24319.72364869 -.00000074  00000+0  00000+0 0  9990",
            "Line2": "2 40129  49.5202 296.0806 1614398 157.9045 209.9391  1.85520091 69733",
            "SatelliteNumber": "40129",
            "Classification": "U",
            "LaunchYear": "14",
            "LaunchNumber": "050",
            "PieceOfLaunch": "B",
            "EpochYear": "24",
            "EpochDay": 319.72364869,
            "FirstDerivativeMeanMotion": -7.4e-07,
            "SecondDerivativeMeanMotion": "00000+0",
            "BSTAR": "00000+0",
            "SetNumber": "999",
            "Inclination": 49.5202,
            "RAAN": 296.0806,
            "Eccentricity": 0.1614398,
            "ArgumentOfPerigee": 157.9045,
            "MeanAnomaly": 209.9391,
            "MeanMotion": 1.85520091,
            "RevolutionNumber": "6973"
        },
        {
            "Name": "GSAT0203 (GALILEO 7)",
            "Line1": "1 40544U 15017A   24320.84100951 -.00000086  00000+0  00000+0 0  9993",
            "Line2": "2 40544  56.9157 357.3462 0005917 257.6672 102.3276  1.70475970 59341",
            "SatelliteNumber": "40544",
            "Classification": "U",
            "LaunchYear": "15",
            "LaunchNumber": "017",
            "PieceOfLaunch": "A",
            "EpochYear": "24",
            "EpochDay": 320.84100951,
            "FirstDerivativeMeanMotion": -8.6e-07,
            "SecondDerivativeMeanMotion": "00000+0",
            "BSTAR": "00000+0",
            "SetNumber": "999",
            "Inclination": 56.9157,
            "RAAN": 357.3462,
            "Eccentricity": 0.0005917,
            "ArgumentOfPerigee": 257.6672,
            "MeanAnomaly": 102.3276,
            "MeanMotion": 1.7047597,
            "RevolutionNumber": "5934"
        },
        {
            "Name": "GSAT0204 (GALILEO 8)",
            "Line1": "1 40545U 15017B   24321.68221697 -.00000089  00000+0  00000+0 0  9991",
            "Line2": "2 40545  56.9220 357.3393 0005767 249.1376 110.8595  1.70475337 60028",
            "SatelliteNumber": "40545",
            "Classification": "U",
            "LaunchYear": "15",
            "LaunchNumber": "017",
            "PieceOfLaunch": "B",
            "EpochYear": "24",
            "EpochDay": 321.68221697,
            "FirstDerivativeMeanMotion": -8.9e-07,
            "SecondDerivativeMeanMotion": "00000+0",
            "BSTAR": "00000+0",
            "SetNumber": "999",
            "Inclination": 56.922,
            "RAAN": 357.3393,
            "Eccentricity": 0.0005767,
            "ArgumentOfPerigee": 249.1376,
            "MeanAnomaly": 110.8595,
            "MeanMotion": 1.70475337,
            "RevolutionNumber": "6002"
        },
        {
            "Name": "GSAT0205 (GALILEO 9)",
            "Line1": "1 40889U 15045A   24321.45059396 -.00000004  00000+0  00000+0 0  9990",
            "Line2": "2 40889  55.1520 237.5651 0004912  25.5321 334.5273  1.70472870 57164",
            "SatelliteNumber": "40889",
            "Classification": "U",
            "LaunchYear": "15",
            "LaunchNumber": "045",
            "PieceOfLaunch": "A",
            "EpochYear": "24",
            "EpochDay": 321.45059396,
            "FirstDerivativeMeanMotion": -4e-08,
            "SecondDerivativeMeanMotion": "00000+0",
            "BSTAR": "00000+0",
            "SetNumber": "999",
            "Inclination": 55.152,
            "RAAN": 237.5651,
            "Eccentricity": 0.0004912,
            "ArgumentOfPerigee": 25.5321,
            "MeanAnomaly": 334.5273,
            "MeanMotion": 1.7047287,
            "RevolutionNumber": "5716"
        },
        {
            "Name": "GSAT0206 (GALILEO 10)",
            "Line1": "1 40890U 15045B   24319.91145422 -.00000008  00000+0  00000+0 0  9990",
            "Line2": "2 40890  55.1524 237.6028 0003065  14.3768 345.6566  1.70472810 57160",
            "SatelliteNumber": "40890",
            "Classification": "U",
            "LaunchYear": "15",
            "LaunchNumber": "045",
            "PieceOfLaunch": "B",
            "EpochYear": "24",
            "EpochDay": 319.91145422,
            "FirstDerivativeMeanMotion": -8e-08,
            "SecondDerivativeMeanMotion": "00000+0",
            "BSTAR": "00000+0",
            "SetNumber": "999",
            "Inclination": 55.1524,
            "RAAN": 237.6028,
            "Eccentricity": 0.0003065,
            "ArgumentOfPerigee": 14.3768,
            "MeanAnomaly": 345.6566,
            "MeanMotion": 1.7047281,
            "RevolutionNumber": "5716"
        },
        {
            "Name": "GSAT0209 (GALILEO 12)",
            "Line1": "1 41174U 15079A   24320.08082941  .00000052  00000+0  00000+0 0  9997",
            "Line2": "2 41174  55.5020 117.1675 0001908 353.7537   6.2322  1.70474289 54900",
            "SatelliteNumber": "41174",
            "Classification": "U",
            "LaunchYear": "15",
            "LaunchNumber": "079",
            "PieceOfLaunch": "A",
            "EpochYear": "24",
            "EpochDay": 320.08082941,
            "FirstDerivativeMeanMotion": 5.2e-07,
            "SecondDerivativeMeanMotion": "00000+0",
            "BSTAR": "00000+0",
            "SetNumber": "999",
            "Inclination": 55.502,
            "RAAN": 117.1675,
            "Eccentricity": 0.0001908,
            "ArgumentOfPerigee": 353.7537,
            "MeanAnomaly": 6.2322,
            "MeanMotion": 1.70474289,
            "RevolutionNumber": "5490"
        }
    ]
}